#aV2022 11  4  0  0  0.00000000     288 DD+AD WGS84 FIT  NGA
## 2234 432000.00000000   300.00000000 59887 0.0000000000000
+   32     1  2  3  4  5  6  7  8  9 10 11 12 13 14 15 16 17
+         18 19 20 21 22 23 24 25 26 27 28 29 30 31 32  0  0
+          0  0  0  0  0  0  0  0  0  0  0  0  0  0  0  0  0
+          0  0  0  0  0  0  0  0  0  0  0  0  0  0  0  0  0
+          0  0  0  0  0  0  0  0  0  0  0  0  0  0  0  0  0
++         2  2  2  2  2  2  2  2  2  2  2  2  2  2  2  2  2
++         2  2  2  2  2  2  2  2  2  2  2  2  2  2  2  0  0
++         0  0  0  0  0  0  0  0  0  0  0  0  0  0  0  0  0
++         0  0  0  0  0  0  0  0  0  0  0  0  0  0  0  0  0
++         0  0  0  0  0  0  0  0  0  0  0  0  0  0  0  0  0
%c cc cc ccc ccc cccc cccc cccc cccc ccccc ccccc ccccc ccccc
%c cc cc ccc ccc cccc cccc cccc cccc ccccc ccccc ccccc ccccc
%f  0.0000000  0.000000000  0.00000000000  0.000000000000000
%f  0.0000000  0.000000000  0.00000000000  0.000000000000000
%i    0    0    0    0      0      0      0      0         0
%i    0    0    0    0      0      0      0      0         0
/*      NGA, ST. LOUIS,MO.                                  
/*   EPHEMERIS COMPUTED FROM 2 DAYS OF DATA                 
/*   EPOCHA v8 SMOOTHER                                     
/*   G2139 IERS2010 SATIGS SATAPC                           
*  2022 11  4  7 20  0.00000000
P  1  20450.927669  11770.566092  12216.319889    257.018157                    
V  1   9116.636247  13030.782440 -26803.052561     -0.058148                    
P  2 -21266.860691  -8729.436208 -12533.397431   -639.429219                    
V  2 -10429.394170 -13629.785112  26060.919922      0.017423                    
P  3  14282.128348   4035.229143  21901.893045   -370.502128                    
V  3  -8996.178002  26582.534763   1065.687445     -0.026891                    
P  4  25297.690247   1679.070084   8094.748683    -92.396658                    
V  4  -9722.795665   4098.977451  29437.969041      0.064925                    
P  5  -8796.363276 -16615.859793 -18886.361579   -102.972949                    
V  5   8046.289224 -22291.217651  16128.016161     -0.014642                    
P  6  -1046.780331 -19473.252322  18059.031545    509.498727                    
V  6  15704.149409  16522.250679  18866.034756      0.098193                    
P  7  16520.698701  -3001.390406 -20265.474503    291.475901                    
V  7  16755.981939  20684.569287   9900.383628     -0.043896                    
P  8  19317.879200   7730.606183 -16755.181462    -92.133847                    
V  8 -20227.142626   6053.780025 -20216.977674     -0.018180                    
P  9  25300.519280  -7635.750029  -2970.229755   -273.731061                    
V  9   4212.131434   2097.808503  31292.448136      0.054899                    
P 10 -11338.579107  23319.450796  -4759.600343    -10.417123                    
V 10   -411.056858  -6778.356455 -31520.901804     -0.016454                    
P 11 -10468.683946 -22919.746167   8464.534761    -34.597952                    
V 11   8547.419042   6932.953170  29323.213766     -0.054323                    
P 12 -13868.382681  -5570.335923  21687.992174   -300.172178                    
V 12  10924.976009 -25958.246004    415.513420     -0.044902                    
P 13 -11545.117877 -13221.659379 -20162.899924    418.378026                    
V 13  25048.661331  -2314.380139 -12755.423770      0.068725                    
P 14  13438.402162 -21853.134059  -6635.702250    -87.445956                    
V 14   -153.747467   9015.763199 -30078.263883      0.046931                    
P 15 -20211.512535  -6259.350849 -16668.505624    -15.304982                    
V 15  18577.985965  -8492.853327 -19586.609137      0.031769                    
P 16   2948.670464  20825.148902 -16213.888921   -526.825083                    
V 16 -10042.933131  17684.586676  21707.832160     -0.001696                    
P 17  17620.594597 -12930.721329  15582.643107    674.880073                    
V 17  18963.580027  -1001.452684 -22862.021297      0.033279                    
P 18 -14903.171959   4945.531397 -21444.507322     -9.372068                    
V 18 -17087.881745 -21119.607273   6867.085524     -0.137968                    
P 19   6755.201654 -14701.144927  20777.483935    232.768250                    
V 19  26912.126530  -1433.529321  -9905.831176      0.050653                    
P 20  -1744.682737 -25305.955932  -8245.338214    472.921208                    
V 20   4579.870700  -9820.071922  28889.757774     -0.030660                    
P 21  21256.827340  16077.148316   4724.558609    156.765029                    
V 21   2246.297174   5030.944854 -30548.761148     -0.007699                    
P 22  -3250.196720  15570.063243  21670.996599    358.122721                    
V 22 -26453.149076   2364.300026  -5953.171188      0.070597                    
P 23 -15362.400212  16035.462082 -14474.606050     -1.136511                    
V 23   3591.761326 -18154.131963 -24067.573868      0.000599                    
P 24 -21808.546962 -13347.458815   7614.596357     73.264135                    
V 24  -5013.641187  -9242.800951 -28860.358543     -0.154921                    
P 25 -16591.905713   6972.160636  19144.500354    389.192673                    
V 25   6412.418490 -24268.099422  14450.293081      0.037765                    
P 26  -2574.292099  25612.581607  -5883.552312    234.729495                    
V 26  -5578.466508   6191.534448  30189.941712      0.012016                    
P 27   7889.481544  13587.472826 -21683.425679    185.413796                    
V 27 -26370.061023   5479.499101  -5832.301291     -0.078432                    
P 28 -13188.757822 -23046.496563   3265.353134    319.500708                    
V 28    668.329724  -4173.159903 -31363.015200     -0.055558                    
P 29 -26236.587014   4140.406834  -1563.258228   -564.693756                    
V 29  -2165.954220  -1931.955872  32014.648677     -0.027832                    
P 30   7821.466329 -14413.966956 -20761.962710   -536.967862                    
V 30  17997.198921  19758.996068  -7160.978748      0.002436                    
P 31   1484.556873  20266.920921  16698.591624   -199.059264                    
V 31 -15577.045721 -15265.987287  20186.651146     -0.012514                    
P 32 -14106.841674  14957.730076  16853.238653   -284.907188                    
V 32 -21155.241208   2362.139366 -20176.604485     -0.123705                    
EOF
